[{"OBJECT_NAME":"K-HERO","OBJECT_ID":"2025-274L","EPOCH":"2026-03-09T07:34:25.128768","MEAN_MOTION":14.93525062,"ECCENTRICITY":0.00141369,"INCLINATION":97.7443,"RA_OF_ASC_NODE":359.1816,"ARG_OF_PERICENTER":357.698,"MEAN_ANOMALY":2.4172,"EPHEMERIS_TYPE":0,"CLASSIFICATION_TYPE":"U","NORAD_CAT_ID":66660,"ELEMENT_SET_NO":999,"REV_AT_EPOCH":1532,"BSTAR":0.00026499368,"MEAN_MOTION_DOT":2.739e-5,"MEAN_MOTION_DDOT":0},{"OBJECT_NAME":"COSMOS 2251 DEB","OBJECT_ID":"1993-036GJ","EPOCH":"2026-03-09T09:01:45.653376","MEAN_MOTION":14.85640733,"ECCENTRICITY":0.00467791,"INCLINATION":73.9175,"RA_OF_ASC_NODE":57.6751,"ARG_OF_PERICENTER":289.0388,"MEAN_ANOMALY":70.5727,"EPHEMERIS_TYPE":0,"CLASSIFICATION_TYPE":"U","NORAD_CAT_ID":33999,"ELEMENT_SET_NO":999,"REV_AT_EPOCH":90536,"BSTAR":0.001837424,"MEAN_MOTION_DOT":0.00016238,"MEAN_MOTION_DDOT":0}]
